#dP2021  5 16  0  0  0.00000000      96 __u+U ITR00 FIT  IAC
## 2158      0.00000000   900.00000000 59350 0.0000000000000
+  116   C06C07C08C09C10C11C12C13C14C16C19C20C21C22C23C24C25
+        C26C27C28C29C30C32C33C34C35C36C37C38C39C40C41C42C43
+        C44C45C46E01E02E03E04E05E07E08E09E11E12E13E14E15E18
+        E19E21E24E25E26E27E30E31E33E36G01G02G03G04G05G06G07
+        G08G09G10G12G13G14G15G16G17G18G19G20G21G22G23G24G25
+        G26G27G28G29G30G31G32J01J02J03R01R02R03R04R05R07R08
+        R09R11R12R13R14R15R16R17R18R19R20R21R22R24  0  0  0
++         6  7  7  8  9  7  7  7  8  8  7  7  7  8  6  8  6
++         7  7  7  7  7  8  6  6  8  8  7  8  7  7  6  6  7
++         8  7  8  6  7  6  6  6  7  6  7  8  6  6  6  5  7
++         7  7  7  6  6  6  6  6  5  8  5  7  6  6  6  7  6
++         6  5  5  6  6  7  6  6  7  6  7  6  6  6  5  6  6
++         5  6  6  6  6  6  6  8  8  8  8  7  7  7  7  6  6
++         9  6  6  8  7  7  6  7  6  6  5  8  8  8  0  0  0
%c M  cc GPS ccc cccc cccc cccc cccc ccccc ccccc ccccc ccccc
%c cc cc ccc ccc cccc cccc cccc cccc ccccc ccccc ccccc ccccc
%f  0.0000000  0.000000000  0.00000000000  0.000000000000000
%f  0.0000000  0.000000000  0.00000000000  0.000000000000000
%i    0    0    0    0      0      0      0      0         0
%i    0    0    0    0      0      0      0      0         0
/* INFORMATION & ANALYSIS CENTER (IAC)      ULTRA-RAPID DATA
/* S/V CLOCKS ARE ALIGNED TO GNSS TIME                      
/* G:C1WC2W R:C1PC2P E:C1XC5X C:C2IC6I J:C1CC2S             
/* PCV:IGS14_2148 OL/AL:FES2004  NONE     YN ORB:CoN CLK:CoN
*  2021 05 16 10 30  0.00000000
PC06 -25661.941843  29505.634793 -15913.295070    390.816772
PC07 -11302.002218  35264.867820 -19424.670563   -227.732372
PC08 -10593.697453  18476.591681  36490.498149   -890.409246
PC09 -11905.473680  29426.832439 -27657.617183    519.942361
PC10    158.672177  41338.727933  -6765.523125    -42.089499
PC11  15280.248394   8604.065281  21772.688143    343.945993
PC12  -3683.259296  17457.875978  21480.791606    881.861788
PC13   2969.755605  25175.652843  33845.331881    262.754928
PC14  11059.369761  18744.365235 -17401.636776    745.038588
PC16 -22456.610435  30187.200901 -19117.559107   -840.748572
PC19 -14754.550688  -8842.408206  22010.124515    836.788008
PC20  -6531.067804 -24630.105722  11439.961384   -914.812460
PC21  -6101.894758  26416.991778   6570.663298   -940.833471
PC22 -14704.004003  12529.229422  20134.937406   -956.126514
PC23  20033.387974  -3064.874188  19187.288421   -908.586181
PC24  14279.188373  20426.519587 -12582.027020   -852.578281
PC25  24942.924575  11338.946939   5341.512681   -916.247004
PC26  -2678.167732  16920.741508 -22041.312791    906.343762
PC27  13316.926070 -18601.509615 -15989.141575    532.514066
PC28  25308.052655 -11753.969856    457.057894    -73.827805
PC29 -22446.819145  -1135.113879 -16554.555561    392.976688
PC30  -6420.721905 -14559.019441 -22931.959540    467.168904
PC32   5866.904027 -26497.316547  -6510.854765   -933.018057
PC33  14796.362316   8807.139954 -21943.846581   -938.165304
PC34   7124.557568  14239.141706  22905.550921   -672.307566
PC35 -25000.100762  12419.948345   -803.668310   -278.435016
PC36 -24607.327565 -12178.028098  -4977.082807   -726.783750
PC37   4035.848788 -16374.642230  22248.323698   -892.056435
PC38  -6363.512551  22968.547770  34816.738870    149.068861
PC39 -18177.391926  31753.728228 -21059.817566     31.117056
PC40  -5936.934122  40199.484916 -10942.584224    161.471121
PC41  14738.840325 -12310.410901 -20193.791279   -944.482274
PC42   6076.675681  25009.579102 -10712.746096   -915.197247
PC43  22177.177549   1725.603822  16825.015690   -732.605998
PC44 -12897.882064  19110.182009  15736.562965    190.551818
PC45 -19888.105623   3120.422502 -19314.417359    441.526668
PC46 -15148.360829 -20214.321303  11831.317750    268.597737
PE01  -2625.060811 -25435.009408  14907.646082  -1108.887484
PE02   2728.977313  25490.017243 -14813.398381    219.426062
PE03  -8041.695911  26802.046898  -9622.804977   -431.478045
PE04  -7931.464529 -17675.802620  22391.807445   -772.032713
PE05 -19543.501343  20330.147535   8996.769345   -280.569636
PE07  19520.822734  -2103.755387 -22142.818113   -538.294693
PE08   8152.831682  17289.614783 -22588.607348   6001.299217
PE09 -19444.908111   2408.771184  22191.820300   5666.080276
PE11 -29373.756323  -2193.259541  -3053.691874   5973.824029
PE12 -17617.662198 -13101.269769 -19867.140126   5208.095995
PE13  29295.450110   2352.348733   3475.569327    416.464423
PE14 -16692.566581  18913.134425   2101.930139  -1432.823779
PE15  17663.307582  12971.050202  19896.186167    814.001235
PE18   9538.661975 -26195.661478 -14978.633655  -1568.404209
PE19   9796.059930 -26867.402111   7650.965427    278.193648
PE21  11916.209545 -12134.830703  24222.965169   -665.201917
PE24 -20243.024311  -9559.757523 -19368.570003   -902.911011
PE25 -12046.081386  11944.686841 -24254.069306   -533.986504
PE26  23116.233429 -10034.530543 -15525.004836   1804.698813
PE27  20166.847225   8701.178606  19846.895731    -33.514991
PE30  15923.490458  24788.729926   2905.150627   2941.294713
PE31 -16499.088707 -24274.927453  -3827.726920   -481.217063
PE33   4320.138249 -15929.936676 -24567.755575   -468.659167
PE36 -23665.091023   9630.054994  14959.145632   -207.804258
PG01 -17901.373542 -13796.578834 -14489.328720    687.569796
PG02  -6801.317673  14444.022101  21888.652300   -604.654746
PG03 -12746.362835 -22056.251511   7635.478128   -165.409225
PG04  -8634.422402 -12836.759749  21594.100311   -196.476874
PG05   4112.255590  25180.328131   6882.487947    -42.095101
PG06 -18770.320960   7730.547910  17220.603176     16.299870
PG07 -25755.819630  -7279.882376   2270.175280    152.320916
PG08   -364.048445 -19003.743956 -18430.342583    -21.411166
PG09 -17108.144977  -2119.195656  20154.659837   -345.791714
PG10  14094.523176  -5081.936860 -21810.717949   -123.014059
PG12   9921.575017  24025.387489   5561.815161    -41.807038
PG13  -9322.914754  20624.668715 -13919.577727    132.695691
PG14 -14648.371235   4411.872031 -21723.108255     85.076474
PG15   3349.361500  19090.412936 -18372.326390   -149.041628
PG16   1752.988720 -24002.827885  10459.174127   -326.023092
PG17 -21398.371812  11894.667519  -9871.990560    443.226915
PG18  26101.076580   4759.814797  -1864.020981    350.244111
PG19 -20617.402090  16514.732257  -2342.230731      0.715032
PG20  12644.717448  23488.879456  -1149.096722    522.133641
PG21 -11397.621452 -14649.313423 -18468.872925    118.491759
PG22  -9308.038130 -24882.543353  -2081.842858   -612.983927
PG23  16798.593738   7145.933684 -19329.104056    106.235496
PG24  13613.647563  14996.138442 -17623.933031     80.823448
PG25  16032.545727  14618.480763  15234.912865    138.169878
PG26   7015.304537 -18185.244137  17860.694488     85.994384
PG27   9991.036117 -22027.839467 -10709.304915   -130.964926
PG28 -11962.788789  10765.376736 -20633.135059    570.478789
PG29  16397.046640   3223.521084  20606.377213   -347.950559
PG30 -24372.459642   2198.008785 -10552.388240   -426.746289
PG31  16806.426772  -9379.200849  18414.716379   -117.590548
PG32  20560.405815 -14338.880667  -8404.336917     21.110511
PJ01 -30364.512825  25470.552224  19309.861116   -379.718973
PJ02 -19680.228279  21658.694900 -25786.941859      0.061367
PJ03 -30225.461932  28709.463764  11726.943971     -5.582086
PR01   6099.938137  15351.787371 -19423.140510     79.552784
PR02  12111.281366  -6354.564264 -21471.452327    478.828796
PR03  10008.997849 -21432.330711  -9434.796097     36.050391
PR04   2369.420232 -24193.394045   7756.201729     87.034423
PR05  -6547.255466 -13486.525466  20648.142827     71.845659
PR07  -9880.908739  21792.494379   8940.859873    -42.450036
PR08  -2347.955330  24209.283905  -7655.272689    -59.001357
PR09 -17824.140225  -4897.558332 -17598.090318     -6.863623
PR11   9042.716183  18314.579909 -15261.518813     -4.517749
PR12  19016.539562  16898.254985   2024.913444    229.355902
PR13  17919.388261   5519.801578  17276.125964    -54.794975
PR14   5896.665549  -9628.244449  22884.261054     64.333128
PR15  -9089.391497 -18632.403736  14882.057134    103.822687
PR16 -19601.042811 -15932.137244  -3058.018104    -15.128882
PR17  18912.656573 -11354.997280 -12834.051199    424.519369
PR18   3053.512071 -11362.875647 -22614.530567     76.724614
PR19 -13477.737537  -6158.289803 -20767.266952   -143.906306
PR20 -24751.120803   3823.487163  -4965.711900    -49.182390
PR21 -18047.784883  11470.218000  13884.554731   -209.323235
PR22  -2134.924298  11128.738948  22845.077082   -112.948483
PR24  24763.598259  -4456.565292   4231.889810     42.864924
EOF
